STARLETTE               
1 07646U 75010A   13058.55922700 -.00000114  00000-0  21158-4 0  1768
2 07646  49.8237 197.4205 0205739 216.5996 247.6397 13.82283425922605
LAGEOS 1                
1 08820U 76039A   13057.20644845  .00000014  00000-0  10000-3 0  4244
2 08820 109.8591 314.8808 0044849 262.7464  96.8223  6.38664976603256
AJISAI (EGS)            
1 16908U 86061A   13057.53821019 -.00000083  00000-0  10000-3 0   627
2 16908  50.0132 327.0678 0011356  54.7022 305.4874 12.44471843875746
LAGEOS 2                
1 22195U 92070B   13058.54623904 -.00000009  00000-0  00000+0 0  6544
2 22195  52.6487  96.7657 0137231 223.5901 185.0847  6.47294292481159
STELLA                  
1 22824U 93061B   13058.29319969 -.00000008  00000-0  14707-4 0  4113
2 22824  98.6311 358.8599 0005345 310.6009 224.9915 14.27315509 11912
WESTPAC                 
1 25398U 98043E   13057.88088575 -.00000010  00000-0  13827-4 0  6394
2 25398  98.4111  29.0438 0001110 173.2292 270.7079 14.22727616760067
GRACE-1                 
1 27391U 02012A   13058.87820115  .00004856  00000-0  11314-3 0  3266
2 27391  89.0264 181.3761 0011482 220.9301 286.3064 15.41968241612877
GRACE-2                 
1 27392U 02012B   13058.87789869  .00004988  00000-0  11620-3 0  3285
2 27392  89.0264 181.4045 0012206 223.7241 283.5104 15.41965037612877
GOCE                    
1 34602U 09013A   13058.59863027  .00000776  19200-5  11872-5 0  4700
2 34602  96.5769  86.9640 0004328 195.9144 310.3819 16.13383191231560
LARES                   
1 38077U 12006A   13058.75383258 -.00000022  00000-0  10000-3 0   420
2 38077  69.4944 309.1958 0010759 299.6831  60.3121 12.54929874 47733
